start=new Date('2022-01-06T00:00:00.000Z').valueOf();
sats=[{"FILE":"3264673","ECCENTRICITY":"0.00015700","EPOCH":"2022-01-05T10:19:04.515168","OBJECT_TYPE":"PAYLOAD","ELEMENT_SET_NO":"999","TLE_LINE1":"1 46384U 20062BM  22005.42991337 -.00000363  00000-0 -54431-5 0  9998","TLE_LINE2":"2 46384  53.0574  19.2778 0001570  79.0179 281.0986 15.06396847 74566","DECAY_DATE":null,"SEMIMAJOR_AXIS":"6925.358","GP_ID":"193252358","MEAN_MOTION_DDOT":"0.0000000000000","EPHEMERIS_TYPE":"0","COUNTRY_CODE":"US","PERIOD":"95.592","CLASSIFICATION_TYPE":"U","NORAD_CAT_ID":"46384","MEAN_ANOMALY":"281.0986","TIME_SYSTEM":"UTC","APOAPSIS":"548.311","SITE":"AFETR","MEAN_MOTION":"15.06396847","ARG_OF_PERICENTER":"79.0179","INCLINATION":"53.0574","PERIAPSIS":"546.136","RA_OF_ASC_NODE":"19.2778","RCS_SIZE":"LARGE","REF_FRAME":"TEME","CENTER_NAME":"EARTH","BSTAR":"-0.00000544310000","OBJECT_ID":"2020-062BM","OBJECT_NAME":"STARLINK-1771","LAUNCH_DATE":"2020-09-03","MEAN_ELEMENT_THEORY":"SGP4","MEAN_MOTION_DOT":"-0.00000363","REV_AT_EPOCH":"7456"},{"NORAD_CAT_ID":"46532","MEAN_ANOMALY":"269.2866","TIME_SYSTEM":"UTC","CLASSIFICATION_TYPE":"U","EPHEMERIS_TYPE":"0","COUNTRY_CODE":"US","PERIOD":"95.592","TLE_LINE2":"2 46532  53.0532 177.4996 0002303  90.8387 269.2866 15.06403878 69822","DECAY_DATE":null,"MEAN_MOTION_DDOT":"0.0000000000000","GP_ID":"193285001","SEMIMAJOR_AXIS":"6925.337","TLE_LINE1":"1 46532U 20070A   22005.82799300  .00001188  00000-0  98651-4 0  9997","ELEMENT_SET_NO":"999","FILE":"3265018","ECCENTRICITY":"0.00023030","OBJECT_TYPE":"PAYLOAD","EPOCH":"2022-01-05T19:52:18.595200","MEAN_MOTION_DOT":"0.00001188","REV_AT_EPOCH":"6982","MEAN_ELEMENT_THEORY":"SGP4","LAUNCH_DATE":"2020-10-06","OBJECT_ID":"2020-070A","OBJECT_NAME":"STARLINK-1644","BSTAR":"0.00009865100000","REF_FRAME":"TEME","CENTER_NAME":"EARTH","INCLINATION":"53.0532","PERIAPSIS":"545.607","RA_OF_ASC_NODE":"177.4996","RCS_SIZE":"LARGE","APOAPSIS":"548.797","SITE":"AFETR","MEAN_MOTION":"15.06403878","ARG_OF_PERICENTER":"90.8387"},{"INCLINATION":"53.0511","PERIAPSIS":"545.601","RA_OF_ASC_NODE":"177.4560","RCS_SIZE":"LARGE","SITE":"AFETR","APOAPSIS":"548.876","MEAN_MOTION":"15.06391865","ARG_OF_PERICENTER":"89.1754","BSTAR":"-0.00005694800000","REF_FRAME":"TEME","CENTER_NAME":"EARTH","LAUNCH_DATE":"2020-10-06","OBJECT_ID":"2020-070B","OBJECT_NAME":"STARLINK-1648","MEAN_MOTION_DOT":"-0.00001130","REV_AT_EPOCH":"6982","MEAN_ELEMENT_THEORY":"SGP4","ELEMENT_SET_NO":"999","ECCENTRICITY":"0.00023650","FILE":"3265018","EPOCH":"2022-01-05T20:08:14.139456","OBJECT_TYPE":"PAYLOAD","TLE_LINE2":"2 46533  53.0511 177.4560 0002365  89.1754 270.9505 15.06391865 69825","DECAY_DATE":null,"GP_ID":"193285251","SEMIMAJOR_AXIS":"6925.373","MEAN_MOTION_DDOT":"0.0000000000000","TLE_LINE1":"1 46533U 20070B   22005.83905254 -.00001130  00000-0 -56948-4 0  9998","CLASSIFICATION_TYPE":"U","EPHEMERIS_TYPE":"0","COUNTRY_CODE":"US","PERIOD":"95.593","NORAD_CAT_ID":"46533","MEAN_ANOMALY":"270.9505","TIME_SYSTEM":"UTC"},{"TLE_LINE2":"2 46534  53.0549 177.2295 0002002  83.4038 276.7179 15.06394068 69830","DECAY_DATE":null,"SEMIMAJOR_AXIS":"6925.367","GP_ID":"193285500","MEAN_MOTION_DDOT":"0.0000000000000","TLE_LINE1":"1 46534U 20070C   22005.88696577 -.00001001  00000-0 -48297-4 0  9994","ELEMENT_SET_NO":"999","FILE":"3265018","ECCENTRICITY":"0.00020020","OBJECT_TYPE":"PAYLOAD","EPOCH":"2022-01-05T21:17:13.842528","NORAD_CAT_ID":"46534","MEAN_ANOMALY":"276.7179","TIME_SYSTEM":"UTC","CLASSIFICATION_TYPE":"U","EPHEMERIS_TYPE":"0","COUNTRY_CODE":"US","PERIOD":"95.593","BSTAR":"-0.00004829700000","REF_FRAME":"TEME","CENTER_NAME":"EARTH","INCLINATION":"53.0549","RA_OF_ASC_NODE":"177.2295","PERIAPSIS":"545.845","RCS_SIZE":"LARGE","APOAPSIS":"548.618","SITE":"AFETR","MEAN_MOTION":"15.06394068","ARG_OF_PERICENTER":"83.4038","MEAN_MOTION_DOT":"-0.00001001","REV_AT_EPOCH":"6983","MEAN_ELEMENT_THEORY":"SGP4","LAUNCH_DATE":"2020-10-06","OBJECT_ID":"2020-070C","OBJECT_NAME":"STARLINK-1659"},{"ARG_OF_PERICENTER":"84.7737","MEAN_MOTION":"15.06393678","SITE":"AFETR","APOAPSIS":"548.809","RCS_SIZE":"LARGE","PERIAPSIS":"545.657","RA_OF_ASC_NODE":"177.8859","INCLINATION":"53.0534","CENTER_NAME":"EARTH","REF_FRAME":"TEME","BSTAR":"0.00004935800000","OBJECT_NAME":"STARLINK-1663","OBJECT_ID":"2020-070D","LAUNCH_DATE":"2020-10-06","MEAN_ELEMENT_THEORY":"SGP4","REV_AT_EPOCH":"6980","MEAN_MOTION_DOT":"0.00000453","OBJECT_TYPE":"PAYLOAD","EPOCH":"2022-01-05T17:50:15.402912","FILE":"3265018","ECCENTRICITY":"0.00022760","ELEMENT_SET_NO":"999","TLE_LINE1":"1 46535U 20070D   22005.74323383  .00000453  00000-0  49358-4 0  9999","GP_ID":"193284966","MEAN_MOTION_DDOT":"0.0000000000000","SEMIMAJOR_AXIS":"6925.368","DECAY_DATE":null,"TLE_LINE2":"2 46535  53.0534 177.8859 0002276  84.7737 275.3511 15.06393678 69808","PERIOD":"95.593","COUNTRY_CODE":"US","EPHEMERIS_TYPE":"0","CLASSIFICATION_TYPE":"U","TIME_SYSTEM":"UTC","MEAN_ANOMALY":"275.3511","NORAD_CAT_ID":"46535"},{"MEAN_MOTION":"15.82006949","ARG_OF_PERICENTER":"331.5144","SITE":"AFETR","APOAPSIS":"335.321","RCS_SIZE":"LARGE","INCLINATION":"53.0518","RA_OF_ASC_NODE":"119.5898","PERIAPSIS":"314.214","CENTER_NAME":"EARTH","REF_FRAME":"TEME","BSTAR":"0.00035133000000","OBJECT_ID":"2020-070E","OBJECT_NAME":"STARLINK-1668","LAUNCH_DATE":"2020-10-06","MEAN_ELEMENT_THEORY":"SGP4","MEAN_MOTION_DOT":"0.00073634","REV_AT_EPOCH":"7063","EPOCH":"2022-01-05T13:49:19.051680","OBJECT_TYPE":"PAYLOAD","FILE":"3264951","ECCENTRICITY":"0.00157450","ELEMENT_SET_NO":"999","TLE_LINE1":"1 46536U 20070E   22005.57591495  .00073634  00000-0  35133-3 0  9998","GP_ID":"193262808","SEMIMAJOR_AXIS":"6702.903","MEAN_MOTION_DDOT":"0.0000000000000","TLE_LINE2":"2 46536  53.0518 119.5898 0015745 331.5144  28.5015 15.82006949 70633","DECAY_DATE":null,"COUNTRY_CODE":"US","PERIOD":"91.024","EPHEMERIS_TYPE":"0","CLASSIFICATION_TYPE":"U","TIME_SYSTEM":"UTC","NORAD_CAT_ID":"46536","MEAN_ANOMALY":"28.5015"},{"CLASSIFICATION_TYPE":"U","PERIOD":"95.592","COUNTRY_CODE":"US","EPHEMERIS_TYPE":"0","TIME_SYSTEM":"UTC","MEAN_ANOMALY":"272.8653","NORAD_CAT_ID":"46537","ELEMENT_SET_NO":"999","EPOCH":"2022-01-05T20:02:57.120576","OBJECT_TYPE":"PAYLOAD","FILE":"3265018","ECCENTRICITY":"0.00024740","SEMIMAJOR_AXIS":"6925.355","GP_ID":"193284752","MEAN_MOTION_DDOT":"0.0000000000000","DECAY_DATE":null,"TLE_LINE2":"2 46537  53.0524 177.4704 0002474  87.2619 272.8653 15.06397916 69821","TLE_LINE1":"1 46537U 20070F   22005.83538334  .00000736  00000-0  68357-4 0  9999","LAUNCH_DATE":"2020-10-06","OBJECT_NAME":"STARLINK-1672","OBJECT_ID":"2020-070F","REV_AT_EPOCH":"6982","MEAN_MOTION_DOT":"0.00000736","MEAN_ELEMENT_THEORY":"SGP4","RCS_SIZE":"LARGE","PERIAPSIS":"545.507","RA_OF_ASC_NODE":"177.4704","INCLINATION":"53.0524","ARG_OF_PERICENTER":"87.2619","MEAN_MOTION":"15.06397916","APOAPSIS":"548.933","SITE":"AFETR","BSTAR":"0.00006835700000","CENTER_NAME":"EARTH","REF_FRAME":"TEME"},{"OBJECT_TYPE":"PAYLOAD","EPOCH":"2022-01-05T17:55:33.692736","ECCENTRICITY":"0.00021140","FILE":"3265018","ELEMENT_SET_NO":"999","TLE_LINE1":"1 46538U 20070G   22005.74691774  .00000604  00000-0  59439-4 0  9993","MEAN_MOTION_DDOT":"0.0000000000000","GP_ID":"193286000","SEMIMAJOR_AXIS":"6925.367","TLE_LINE2":"2 46538  53.0531 177.8659 0002114  84.0224 276.1006 15.06394086 69803","DECAY_DATE":null,"COUNTRY_CODE":"US","PERIOD":"95.593","EPHEMERIS_TYPE":"0","CLASSIFICATION_TYPE":"U","TIME_SYSTEM":"UTC","NORAD_CAT_ID":"46538","MEAN_ANOMALY":"276.1006","MEAN_MOTION":"15.06394086","ARG_OF_PERICENTER":"84.0224","SITE":"AFETR","APOAPSIS":"548.696","RCS_SIZE":"LARGE","INCLINATION":"53.0531","PERIAPSIS":"545.768","RA_OF_ASC_NODE":"177.8659","CENTER_NAME":"EARTH","REF_FRAME":"TEME","BSTAR":"0.00005943900000","OBJECT_ID":"2020-070G","OBJECT_NAME":"STARLINK-1678","LAUNCH_DATE":"2020-10-06","MEAN_ELEMENT_THEORY":"SGP4","MEAN_MOTION_DOT":"0.00000604","REV_AT_EPOCH":"6980"},{"PERIAPSIS":"437.473","RA_OF_ASC_NODE":"172.2311","INCLINATION":"53.0475","RCS_SIZE":"LARGE","APOAPSIS":"439.724","SITE":"AFETR","ARG_OF_PERICENTER":"50.0394","MEAN_MOTION":"15.42546685","BSTAR":"0.01570200000000","REF_FRAME":"TEME","CENTER_NAME":"EARTH","LAUNCH_DATE":"2020-10-06","OBJECT_NAME":"STARLINK-1684","OBJECT_ID":"2020-070H","REV_AT_EPOCH":"6990","MEAN_MOTION_DOT":"0.00752641","MEAN_ELEMENT_THEORY":"SGP4","ELEMENT_SET_NO":"999","FILE":"3265018","ECCENTRICITY":"0.00016510","EPOCH":"2022-01-05T20:19:17.035680","OBJECT_TYPE":"PAYLOAD","DECAY_DATE":null,"TLE_LINE2":"2 46539  53.0475 172.2311 0001651  50.0394 310.0755 15.42546685 69905","SEMIMAJOR_AXIS":"6816.733","GP_ID":"193284467","MEAN_MOTION_DDOT":"0.0000000000000","TLE_LINE1":"1 46539U 20070H   22005.84672495  .00752641  00000-0  15702-1 0  9991","CLASSIFICATION_TYPE":"U","EPHEMERIS_TYPE":"0","PERIOD":"93.352","COUNTRY_CODE":"US","MEAN_ANOMALY":"310.0755","NORAD_CAT_ID":"46539","TIME_SYSTEM":"UTC"},{"CLASSIFICATION_TYPE":"U","PERIOD":"95.592","COUNTRY_CODE":"US","EPHEMERIS_TYPE":"0","TIME_SYSTEM":"UTC","MEAN_ANOMALY":"264.1284","NORAD_CAT_ID":"46541","ELEMENT_SET_NO":"999","EPOCH":"2022-01-05T19:01:52.662432","OBJECT_TYPE":"PAYLOAD","ECCENTRICITY":"0.00022090","FILE":"3265018","MEAN_MOTION_DDOT":"0.0000000000000","GP_ID":"193285002","SEMIMAJOR_AXIS":"6925.362","DECAY_DATE":null,"TLE_LINE2":"2 46541  53.0558 157.6464 0002209  95.9957 264.1284 15.06395667 70099","TLE_LINE1":"1 46541U 20070K   22005.79297063  .00001035  00000-0  88431-4 0  9998","LAUNCH_DATE":"2020-10-06","OBJECT_NAME":"STARLINK-1687","OBJECT_ID":"2020-070K","REV_AT_EPOCH":"7009","MEAN_MOTION_DOT":"0.00001035","MEAN_ELEMENT_THEORY":"SGP4","RCS_SIZE":"LARGE","PERIAPSIS":"545.697","RA_OF_ASC_NODE":"157.6464","INCLINATION":"53.0558","ARG_OF_PERICENTER":"95.9957","MEAN_MOTION":"15.06395667","APOAPSIS":"548.757","SITE":"AFETR","BSTAR":"0.00008843100000","CENTER_NAME":"EARTH","REF_FRAME":"TEME"}];
